ISS (ZARYA)             
1 25544U 98067A   26066.77087839  .00014056  00000+0  26707-3 0  9999
2 25544  51.6320  81.8427 0008117 167.9196 192.1989 15.48514260556039
POISK                   
1 36086U 09060A   26066.77087839  .00014056  00000+0  26707-3 0  9997
2 36086  51.6320  81.8427 0008117 167.9196 192.1989 15.48514260554445
CSS (TIANHE)            
1 48274U 21035A   26067.05173755  .00028649  00000+0  33952-3 0  9993
2 48274  41.4663 218.1268 0007000 262.9146  97.0897 15.60561665277351
ISS (NAUKA)             
1 49044U 21066A   26066.77087839  .00014056  00000+0  26707-3 0  9995
2 49044  51.6320  81.8427 0008117 167.9196 192.1989 15.48514260554454
FREGAT DEB              
1 49271U 11037PF  26064.97574117  .00028561  00000+0  41642-1 0  9993
2 49271  51.6493 311.8987 0957104  50.8853 317.3235 12.39967329212230
CSS (WENTIAN)           
1 53239U 22085A   26067.05173755  .00028649  00000+0  33952-3 0  9996
2 53239  41.4663 218.1268 0007000 262.9146  97.0897 15.60561665277044
CSS (MENGTIAN)          
1 54216U 22143A   26067.05173755  .00028649  00000+0  33952-3 0  9997
2 54216  41.4663 218.1268 0007000 262.9146  97.0897 15.60561665277017
PROGRESS-MS 31          
1 64751U 25146A   26066.77087839  .00014056  00000+0  26707-3 0  9990
2 64751  51.6320  81.8427 0008117 167.9196 192.1989 15.48514260554467
TIANZHOU-9              
1 64786U 25149A   26067.05173755  .00028649  00000+0  33952-3 0  9999
2 64786  41.4663 218.1268 0007000 262.9146  97.0897 15.60561665277021
PROGRESS-MS 32          
1 65586U 25204A   26066.77087839  .00014056  00000+0  26707-3 0  9992
2 65586  51.6320  81.8427 0008117 167.9196 192.1989 15.48514260554509
CYGNUS NG-23            
1 65616U 25208A   26066.77087839  .00014056  00000+0  26707-3 0  9990
2 65616  51.6320  81.8427 0008117 167.9196 192.1989 15.48514260554514
ISS OBJECT XK           
1 65731U 98067XK  26067.14672214  .02850871  11852-4  14141-2 0  9995
2 65731  51.6122  54.1421 0002982 121.8749 238.2560 16.20157141 26654
YOTSUBA-KULOVER         
1 65941U 98067XN  26066.99812784  .00263045  00000+0  13632-2 0  9999
2 65941  51.6208  66.0612 0005751  56.1865 303.9683 15.79713118 23234
E-KAGAKU-1              
1 65943U 98067XQ  26067.00221874  .00253093  00000+0  13328-2 0  9992
2 65943  51.6232  66.1066 0006105  62.9962 297.1662 15.79385798 23234
HRC MONOBLOCK CAMERA    
1 66052U 98067XR  26067.03704198  .00069622  00000+0  78141-3 0  9990
2 66052  51.6270  73.8727 0003626  83.9144 276.2263 15.61987502 22132
HTV-X1                  
1 66174U 25241A   26066.77087839  .00014056  00000+0  26707-3 0  9997
2 66174  51.6320  81.8427 0008117 167.9196 192.1989 15.48514260554479
